[{"OBJECT_NAME":"OBJECT N","OBJECT_ID":"2024-205N","EPOCH":"2026-03-09T22:36:13.267872","MEAN_MOTION":15.33862123,"ECCENTRICITY":0.00094432,"INCLINATION":97.4211,"RA_OF_ASC_NODE":148.9295,"ARG_OF_PERICENTER":39.7652,"MEAN_ANOMALY":320.4281,"EPHEMERIS_TYPE":0,"CLASSIFICATION_TYPE":"U","NORAD_CAT_ID":61906,"ELEMENT_SET_NO":999,"REV_AT_EPOCH":7364,"BSTAR":0.00078005624,"MEAN_MOTION_DOT":0.00025559,"MEAN_MOTION_DDOT":0},{"OBJECT_NAME":"STARLINK-35953","OBJECT_ID":"2025-271W","EPOCH":"2026-03-09T11:24:41.245632","MEAN_MOTION":15.30184966,"ECCENTRICITY":0.00014403,"INCLINATION":53.1578,"RA_OF_ASC_NODE":140.9441,"ARG_OF_PERICENTER":79.2591,"MEAN_ANOMALY":280.8572,"EPHEMERIS_TYPE":0,"CLASSIFICATION_TYPE":"U","NORAD_CAT_ID":66637,"ELEMENT_SET_NO":999,"REV_AT_EPOCH":1753,"BSTAR":0.00032775245,"MEAN_MOTION_DOT":9.356e-5,"MEAN_MOTION_DDOT":0}]
